{
  "type": "FeatureCollection",
  "features": [
    {
      "type": "Feature",
      "properties": {
        "norad_id": 66611,
        "name": "STARLINK-35583",
        "group": "last-30-days",
        "lat": -10.281157015192905,
        "lon": 141.18654355406113,
        "alt_km": 419.46401972877993,
        "timestamp": "2025-12-19T14:48:34.964145+00:00",
        "meta_object_name": "STARLINK-35583",
        "meta_object_id": "2025-270Z",
        "meta_epoch": "2025-12-18T21:51:42.184224",
        "meta_mean_motion": 15.50080389,
        "meta_eccentricity": 0.00037731,
        "meta_inclination": 42.9989,
        "meta_ra_of_asc_node": 156.5389,
        "meta_arg_of_pericenter": 233.564,
        "meta_mean_anomaly": 126.4872,
        "meta_ephemeris_type": 0,
        "meta_classification_type": "U",
        "meta_norad_cat_id": 66611,
        "meta_element_set_no": 999,
        "meta_rev_at_epoch": 541,
        "meta_bstar": -0.0050396687,
        "meta_mean_motion_dot": -0.00280742,
        "meta_mean_motion_ddot": 0,
        "tle_line1": "1 66611U 25270Z   25352.91090491 -.00280742  00000+0 -50397-2 0  9996",
        "tle_line2": "2 66611  42.9989 156.5389 0003773 233.5640 126.4872 15.50080389  5412"
      },
      "geometry": {
        "type": "Point",
        "coordinates": [
          141.18654355406113,
          -10.281157015192905
        ]
      }
    },
    {
      "type": "Feature",
      "properties": {
        "norad_id": 66612,
        "name": "STARLINK-36039",
        "group": "last-30-days",
        "lat": 41.18079116860428,
        "lon": -96.86737135877611,
        "alt_km": 438.2909134066367,
        "timestamp": "2025-12-19T14:48:34.964155+00:00",
        "meta_object_name": "STARLINK-36039",
        "meta_object_id": "2025-270AA",
        "meta_epoch": "2025-12-19T03:27:54.763776",
        "meta_mean_motion": 15.4070398,
        "meta_eccentricity": 0.00013545,
        "meta_inclination": 42.9986,
        "meta_ra_of_asc_node": 155.7191,
        "meta_arg_of_pericenter": 285.3798,
        "meta_mean_anomaly": 74.6908,
        "meta_ephemeris_type": 0,
        "meta_classification_type": "U",
        "meta_norad_cat_id": 66612,
        "meta_element_set_no": 999,
        "meta_rev_at_epoch": 533,
        "meta_bstar": 0.0009673653,
        "meta_mean_motion_dot": 0.00040325,
        "meta_mean_motion_ddot": 0,
        "tle_line1": "1 66612U 25270AA  25353.14438384  .00040325  00000+0  96737-3 0  9998",
        "tle_line2": "2 66612  42.9986 155.7191 0001354 285.3798  74.6908 15.40703980  5337"
      },
      "geometry": {
        "type": "Point",
        "coordinates": [
          -96.86737135877611,
          41.18079116860428
        ]
      }
    },
    {
      "type": "Feature",
      "properties": {
        "norad_id": 66613,
        "name": "STARLINK-36037",
        "group": "last-30-days",
        "lat": 31.407540275601182,
        "lon": -68.00766798445426,
        "alt_km": 439.4454705170838,
        "timestamp": "2025-12-19T14:48:34.964165+00:00",
        "meta_object_name": "STARLINK-36037",
        "meta_object_id": "2025-270AB",
        "meta_epoch": "2025-12-18T22:41:22.829568",
        "meta_mean_motion": 15.40749865,
        "meta_eccentricity": 0.00015375,
        "meta_inclination": 42.9988,
        "meta_ra_of_asc_node": 156.8039,
        "meta_arg_of_pericenter": 258.6695,
        "meta_mean_anomaly": 101.3989,
        "meta_ephemeris_type": 0,
        "meta_classification_type": "U",
        "meta_norad_cat_id": 66613,
        "meta_element_set_no": 999,
        "meta_rev_at_epoch": 530,
        "meta_bstar": 0.00099238029,
        "meta_mean_motion_dot": 0.00041445,
        "meta_mean_motion_ddot": 0,
        "tle_line1": "1 66613U 25270AB  25352.94540312  .00041445  00000+0  99238-3 0  9994",
        "tle_line2": "2 66613  42.9988 156.8039 0001537 258.6695 101.3989 15.40749865  5301"
      },
      "geometry": {
        "type": "Point",
        "coordinates": [
          -68.00766798445426,
          31.407540275601182
        ]
      }
    },
    {
      "type": "Feature",
      "properties": {
        "norad_id": 66614,
        "name": "STARLINK-36040",
        "group": "last-30-days",
        "lat": -36.93401318292765,
        "lon": 26.439621790338723,
        "alt_km": 445.9707892427041,
        "timestamp": "2025-12-19T14:48:34.964177+00:00",
        "meta_object_name": "STARLINK-36040",
        "meta_object_id": "2025-270AC",
        "meta_epoch": "2025-12-19T08:00:01.999872",
        "meta_mean_motion": 15.4066961,
        "meta_eccentricity": 0.00021355,
        "meta_inclination": 42.9997,
        "meta_ra_of_asc_node": 154.2969,
        "meta_arg_of_pericenter": 275.2595,
        "meta_mean_anomaly": 191.0423,
        "meta_ephemeris_type": 0,
        "meta_classification_type": "U",
        "meta_norad_cat_id": 66614,
        "meta_element_set_no": 999,
        "meta_rev_at_epoch": 530,
        "meta_bstar": 0.0011714635,
        "meta_mean_motion_dot": 0.00048897,
        "meta_mean_motion_ddot": 0,
        "tle_line1": "1 66614U 25270AC  25353.33335648  .00048897  00000+0  11715-2 0  9994",
        "tle_line2": "2 66614  42.9997 154.2969 0002135 275.2595 191.0423 15.40669610  5303"
      },
      "geometry": {
        "type": "Point",
        "coordinates": [
          26.439621790338723,
          -36.93401318292765
        ]
      }
    },
    {
      "type": "Feature",
      "properties": {
        "norad_id": 66615,
        "name": "STARLINK-35988",
        "group": "last-30-days",
        "lat": 8.672935177594162,
        "lon": -36.57710256124602,
        "alt_km": 442.8027696202289,
        "timestamp": "2025-12-19T14:48:34.964187+00:00",
        "meta_object_name": "STARLINK-35988",
        "meta_object_id": "2025-270AD",
        "meta_epoch": "2025-12-19T00:00:02.000160",
        "meta_mean_motion": 15.4065151,
        "meta_eccentricity": 0.00015838,
        "meta_inclination": 42.9988,
        "meta_ra_of_asc_node": 156.4013,
        "meta_arg_of_pericenter": 268.5463,
        "meta_mean_anomaly": 72.0896,
        "meta_ephemeris_type": 0,
        "meta_classification_type": "U",
        "meta_norad_cat_id": 66615,
        "meta_element_set_no": 999,
        "meta_rev_at_epoch": 524,
        "meta_bstar": 0.0015815317,
        "meta_mean_motion_dot": 0.0006623,
        "meta_mean_motion_ddot": 0,
        "tle_line1": "1 66615U 25270AD  25353.00002315  .00066230  00000+0  15815-2 0  9997",
        "tle_line2": "2 66615  42.9988 156.4013 0001583 268.5463  72.0896 15.40651510  5248"
      },
      "geometry": {
        "type": "Point",
        "coordinates": [
          -36.57710256124602,
          8.672935177594162
        ]
      }
    },
    {
      "type": "Feature",
      "properties": {
        "norad_id": 66616,
        "name": "STARLINK-35391",
        "group": "last-30-days",
        "lat": -42.88958709590488,
        "lon": 58.06002314599014,
        "alt_km": 446.29477639372817,
        "timestamp": "2025-12-19T14:48:34.964197+00:00",
        "meta_object_name": "STARLINK-35391",
        "meta_object_id": "2025-270AE",
        "meta_epoch": "2025-12-19T08:00:01.999872",
        "meta_mean_motion": 15.40667718,
        "meta_eccentricity": 0.00017034,
        "meta_inclination": 42.9997,
        "meta_ra_of_asc_node": 154.2365,
        "meta_arg_of_pericenter": 275.2609,
        "meta_mean_anomaly": 215.9314,
        "meta_ephemeris_type": 0,
        "meta_classification_type": "U",
        "meta_norad_cat_id": 66616,
        "meta_element_set_no": 999,
        "meta_rev_at_epoch": 556,
        "meta_bstar": 0.0010917063,
        "meta_mean_motion_dot": 0.00045524,
        "meta_mean_motion_ddot": 0,
        "tle_line1": "1 66616U 25270AE  25353.33335648  .00045524  00000+0  10917-2 0  9993",
        "tle_line2": "2 66616  42.9997 154.2365 0001703 275.2609 215.9314 15.40667718  5561"
      },
      "geometry": {
        "type": "Point",
        "coordinates": [
          58.06002314599014,
          -42.88958709590488
        ]
      }
    },
    {
      "type": "Feature",
      "properties": {
        "norad_id": 66617,
        "name": "STARLINK-35940",
        "group": "last-30-days",
        "lat": 27.72238678964306,
        "lon": -48.526463085290864,
        "alt_km": 443.1439185838053,
        "timestamp": "2025-12-19T14:48:34.964209+00:00",
        "meta_object_name": "STARLINK-35940",
        "meta_object_id": "2025-271A",
        "meta_epoch": "2025-12-19T00:00:02.000160",
        "meta_mean_motion": 15.39596888,
        "meta_eccentricity": 0.00013918,
        "meta_inclination": 53.1586,
        "meta_ra_of_asc_node": 157.5858,
        "meta_arg_of_pericenter": 105.8265,
        "meta_mean_anomaly": 216.5412,
        "meta_ephemeris_type": 0,
        "meta_classification_type": "U",
        "meta_norad_cat_id": 66617,
        "meta_element_set_no": 999,
        "meta_rev_at_epoch": 524,
        "meta_bstar": 0.00083644886,
        "meta_mean_motion_dot": 0.00033178,
        "meta_mean_motion_ddot": 0,
        "tle_line1": "1 66617U 25271A   25353.00002315  .00033178  00000+0  83645-3 0  9992",
        "tle_line2": "2 66617  53.1586 157.5858 0001391 105.8265 216.5412 15.39596888  5240"
      },
      "geometry": {
        "type": "Point",
        "coordinates": [
          -48.526463085290864,
          27.72238678964306
        ]
      }
    }
  ]
}